STARLINK-36744          
1 67987U 26039B   26066.58334491 -.01441866  00000+0 -51978-2 0  9997
2 67987  42.9975  67.9349 0001771 266.1025 332.9880 15.90452329  2534
STARLINK-36734          
1 67988U 26039C   26066.58334491 -.01445942  00000+0 -51742-2 0  9996
2 67988  42.9977  67.9274 0001716 267.1292 334.8895 15.90603254  2532
STARLINK-36957          
1 67989U 26039D   26066.58334491 -.01437504  00000+0 -50962-2 0  9995
2 67989  42.9974  67.9206 0001762 266.3743 338.1729 15.90764764  2535
STARLINK-36951          
1 67990U 26039E   26066.58334491 -.01437827  00000+0 -50582-2 0  9993
2 67990  42.9974  67.9134 0001759 264.1394 343.2713 15.90913139  2533
STARLINK-36941          
1 67991U 26039F   26066.58334491 -.01423464  00000+0 -49582-2 0  9994
2 67991  42.9974  67.9072 0001728 264.6774 345.0680 15.91074565  2533
STARLINK-36950          
1 67992U 26039G   26066.58334491 -.01623325  72827-3 -49334-2 0  9998
2 67992  42.9974  67.9003 0001698 267.4216 345.0910 15.91223232  2539
STARLINK-36975          
1 67993U 26039H   26066.58334491 -.01612692  72055-3 -48630-2 0  9995
2 67993  42.9973  67.8937 0001651 269.1124 346.0263 15.91372875  2530
STARLINK-36993          
1 67994U 26039J   26066.58334491 -.01618056  72599-3 -48426-2 0  9992
2 67994  42.9974  67.8869 0001772 267.5945 350.3643 15.91518963  2533
STARLINK-36968          
1 67995U 26039K   26066.58334491 -.01632045  73922-3 -48274-2 0  9999
2 67995  42.9975  67.8697 0001770 265.6254 359.0079 15.91747966  2530
STARLINK-36979          
1 67996U 26039L   26066.58334491 -.01626825  73380-3 -48497-2 0  9994
2 67996  42.9972  67.8763 0001773 266.9250 355.0436 15.91596115  2536
STARLINK-36994          
1 67997U 26039M   26066.58334491 -.01637409  74571-3 -47742-2 0  9990
2 67997  42.9974  67.8548 0001479 266.6690   3.6800 15.92025742  2533
STARLINK-36988          
1 67998U 26039N   26066.58334491 -.01626119  73520-3 -47778-2 0  9999
2 67998  42.9974  67.8620 0001795 267.1403   0.5181 15.91875702  2530
STARLINK-36926          
1 67999U 26039P   26066.58334491 -.01632213  74237-3 -47241-2 0  9993
2 67999  42.9974  67.8482 0001753 268.5524   4.5769 15.92165746  2537
STARLINK-36931          
1 68000U 26039Q   26066.58334491 -.01630878  74236-3 -46823-2 0  9996
2 68000  42.9976  67.8424 0001755 266.6691   8.7802 15.92320227  2536
STARLINK-36903          
1 68001U 26039R   26066.58334491 -.01619010  73339-3 -46157-2 0  9995
2 68001  42.9976  67.8353 0001798 267.7725  10.5055 15.92452794  2531
STARLINK-36898          
1 68002U 26039S   26066.58334491 -.01611832  72937-3 -45294-2 0  9994
2 68002  42.9975  67.8213 0001817 269.3200  14.3367 15.92726809  2533
